SL-4 R/B                
1 39679U 14021B   25338.55097444  .00026204  00000+0  61783-3 0  9992
2 39679  51.6086  80.3813 0102447 116.7221 244.4291 15.36364098641634
ALOS-2                  
1 39766U 14029A   25338.49176965  .00004812  00000+0  65093-3 0  9995
2 39766  97.9237  73.4557 0001512 108.1416 251.9961 14.79460682622797
YAOGAN-29               
1 41038U 15069A   25338.65482648  .00000971  00000+0  12654-3 0  9998
2 41038  98.0227   1.8003 0000668   2.7599 357.3618 14.82868961541792
ASTRO-H (HITOMI)        
1 41337U 16012A   25338.09288697  .00006332  00000+0  38189-3 0  9993
2 41337  30.9999 253.1139 0009461  91.0212 269.1510 15.09266666537778
HXMT (HUIYAN)           
1 42758U 17034A   25338.62190824  .00009250  00000+0  47624-3 0  9995
2 42758  43.0119 184.6740 0032672 351.4342   8.5945 15.16148827468101
CZ-2C R/B               
1 43521U 18054D   25338.10350592  .00151724  00000+0  10936-2 0  9999
2 43521  35.1338 239.3732 0017164  52.5099 307.7191 15.71910345413695
SAOCOM 1A               
1 43641U 18076A   25338.63813984  .00000998  00000+0  13193-3 0  9998
2 43641  97.8847 163.1784 0001555  85.6476 274.4915 14.82164213387287
H-2A R/B                
1 43682U 18084L   25338.62061526  .00035153  00000+0  96005-3 0  9992
2 43682  98.8774 171.0192 0028020 354.3599   5.7321 15.36937783391158
SAOCOM 1B               
1 46265U 20059A   25338.66938505  .00000953  00000+0  12627-3 0  9999
2 46265  97.8843 162.3102 0001268  87.4856 272.6502 14.82146222284677
CSS (TIANHE)            
1 48274U 21035A   25338.64265035  .00037639  00000+0  47697-3 0  9991
2 48274  41.4682  65.8455 0009974 328.5002  31.5238 15.58669844262765
COSMOS 2550             
1 48865U 21056A   25338.57510167 -.00000073  00000+0  36204-5 0  9998
2 48865  67.1427 328.6296 0008414 268.4474  91.5716 15.33831692248877
CZ-2C R/B               
1 52794U 22058K   25338.48128299  .00052922  00000+0  95757-3 0  9993
2 52794  50.1911  85.6467 0046328 164.3656 195.8755 15.47903453195350
