CCSDS_OMM_VERS = 2.0
CREATION_DATE  = 
ORIGINATOR     = 

OBJECT_NAME    = SL-4 R/B
OBJECT_ID      = 2014-021B
CENTER_NAME    = EARTH
REF_FRAME      = TEME
TIME_SYSTEM    = UTC
MEAN_ELEMENT_THEORY = SGP/SGP4

EPOCH          = 2025-12-04T13:13:24.191616
MEAN_MOTION    = 15.36364098
ECCENTRICITY   = .0102447
INCLINATION    = 51.6086
RA_OF_ASC_NODE = 80.3813
ARG_OF_PERICENTER = 116.7221
MEAN_ANOMALY   = 244.4291

EPHEMERIS_TYPE = 0
CLASSIFICATION_TYPE = U
NORAD_CAT_ID   = 39679
ELEMENT_SET_NO = 999
REV_AT_EPOCH   = 64163
BSTAR          = .61783462E-3
MEAN_MOTION_DOT = .26204E-3
MEAN_MOTION_DDOT = 0

CCSDS_OMM_VERS = 2.0
CREATION_DATE  = 
ORIGINATOR     = 

OBJECT_NAME    = ALOS-2
OBJECT_ID      = 2014-029A
CENTER_NAME    = EARTH
REF_FRAME      = TEME
TIME_SYSTEM    = UTC
MEAN_ELEMENT_THEORY = SGP/SGP4

EPOCH          = 2025-12-04T11:48:08.897760
MEAN_MOTION    = 14.79460682
ECCENTRICITY   = .00015125
INCLINATION    = 97.9237
RA_OF_ASC_NODE = 73.4557
ARG_OF_PERICENTER = 108.1416
MEAN_ANOMALY   = 251.9961

EPHEMERIS_TYPE = 0
CLASSIFICATION_TYPE = U
NORAD_CAT_ID   = 39766
ELEMENT_SET_NO = 999
REV_AT_EPOCH   = 62279
BSTAR          = .6509315E-3
MEAN_MOTION_DOT = .4812E-4
MEAN_MOTION_DDOT = 0

CCSDS_OMM_VERS = 2.0
CREATION_DATE  = 
ORIGINATOR     = 

OBJECT_NAME    = YAOGAN-29
OBJECT_ID      = 2015-069A
CENTER_NAME    = EARTH
REF_FRAME      = TEME
TIME_SYSTEM    = UTC
MEAN_ELEMENT_THEORY = SGP/SGP4

EPOCH          = 2025-12-04T15:42:57.007872
MEAN_MOTION    = 14.82868961
ECCENTRICITY   = .00006687
INCLINATION    = 98.0227
RA_OF_ASC_NODE = 1.8003
ARG_OF_PERICENTER = 2.7599
MEAN_ANOMALY   = 357.3618

EPHEMERIS_TYPE = 0
CLASSIFICATION_TYPE = U
NORAD_CAT_ID   = 41038
ELEMENT_SET_NO = 999
REV_AT_EPOCH   = 54179
BSTAR          = .12654367E-3
MEAN_MOTION_DOT = .971E-5
MEAN_MOTION_DDOT = 0

CCSDS_OMM_VERS = 2.0
CREATION_DATE  = 
ORIGINATOR     = 

OBJECT_NAME    = ASTRO-H (HITOMI)
OBJECT_ID      = 2016-012A
CENTER_NAME    = EARTH
REF_FRAME      = TEME
TIME_SYSTEM    = UTC
MEAN_ELEMENT_THEORY = SGP/SGP4

EPOCH          = 2025-12-04T02:13:45.434208
MEAN_MOTION    = 15.09266666
ECCENTRICITY   = .00094613
INCLINATION    = 30.9999
RA_OF_ASC_NODE = 253.1139
ARG_OF_PERICENTER = 91.0212
MEAN_ANOMALY   = 269.1510

EPHEMERIS_TYPE = 0
CLASSIFICATION_TYPE = U
NORAD_CAT_ID   = 41337
ELEMENT_SET_NO = 999
REV_AT_EPOCH   = 53777
BSTAR          = .3818886E-3
MEAN_MOTION_DOT = .6332E-4
MEAN_MOTION_DDOT = 0

CCSDS_OMM_VERS = 2.0
CREATION_DATE  = 
ORIGINATOR     = 

OBJECT_NAME    = HXMT (HUIYAN)
OBJECT_ID      = 2017-034A
CENTER_NAME    = EARTH
REF_FRAME      = TEME
TIME_SYSTEM    = UTC
MEAN_ELEMENT_THEORY = SGP/SGP4

EPOCH          = 2025-12-04T14:55:32.871936
MEAN_MOTION    = 15.16148827
ECCENTRICITY   = .00326724
INCLINATION    = 43.0119
RA_OF_ASC_NODE = 184.6740
ARG_OF_PERICENTER = 351.4342
MEAN_ANOMALY   = 8.5945

EPHEMERIS_TYPE = 0
CLASSIFICATION_TYPE = U
NORAD_CAT_ID   = 42758
ELEMENT_SET_NO = 999
REV_AT_EPOCH   = 46810
BSTAR          = .47624481E-3
MEAN_MOTION_DOT = .925E-4
MEAN_MOTION_DDOT = 0

CCSDS_OMM_VERS = 2.0
CREATION_DATE  = 
ORIGINATOR     = 

OBJECT_NAME    = CZ-2C R/B
OBJECT_ID      = 2018-054D
CENTER_NAME    = EARTH
REF_FRAME      = TEME
TIME_SYSTEM    = UTC
MEAN_ELEMENT_THEORY = SGP/SGP4

EPOCH          = 2025-12-04T02:29:02.911488
MEAN_MOTION    = 15.71910345
ECCENTRICITY   = .00171646
INCLINATION    = 35.1338
RA_OF_ASC_NODE = 239.3732
ARG_OF_PERICENTER = 52.5099
MEAN_ANOMALY   = 307.7191

EPHEMERIS_TYPE = 0
CLASSIFICATION_TYPE = U
NORAD_CAT_ID   = 43521
ELEMENT_SET_NO = 999
REV_AT_EPOCH   = 41369
BSTAR          = .10935966E-2
MEAN_MOTION_DOT = .151724E-2
MEAN_MOTION_DDOT = 0

CCSDS_OMM_VERS = 2.0
CREATION_DATE  = 
ORIGINATOR     = 

OBJECT_NAME    = SAOCOM 1A
OBJECT_ID      = 2018-076A
CENTER_NAME    = EARTH
REF_FRAME      = TEME
TIME_SYSTEM    = UTC
MEAN_ELEMENT_THEORY = SGP/SGP4

EPOCH          = 2025-12-04T15:18:55.282176
MEAN_MOTION    = 14.82164213
ECCENTRICITY   = .00015559
INCLINATION    = 97.8847
RA_OF_ASC_NODE = 163.1784
ARG_OF_PERICENTER = 85.6476
MEAN_ANOMALY   = 274.4915

EPHEMERIS_TYPE = 0
CLASSIFICATION_TYPE = U
NORAD_CAT_ID   = 43641
ELEMENT_SET_NO = 999
REV_AT_EPOCH   = 38728
BSTAR          = .13193327E-3
MEAN_MOTION_DOT = .998E-5
MEAN_MOTION_DDOT = 0

CCSDS_OMM_VERS = 2.0
CREATION_DATE  = 
ORIGINATOR     = 

OBJECT_NAME    = H-2A R/B
OBJECT_ID      = 2018-084L
CENTER_NAME    = EARTH
REF_FRAME      = TEME
TIME_SYSTEM    = UTC
MEAN_ELEMENT_THEORY = SGP/SGP4

EPOCH          = 2025-12-04T14:53:41.158464
MEAN_MOTION    = 15.36937783
ECCENTRICITY   = .00280205
INCLINATION    = 98.8774
RA_OF_ASC_NODE = 171.0192
ARG_OF_PERICENTER = 354.3599
MEAN_ANOMALY   = 5.7321

EPHEMERIS_TYPE = 0
CLASSIFICATION_TYPE = U
NORAD_CAT_ID   = 43682
ELEMENT_SET_NO = 999
REV_AT_EPOCH   = 39115
BSTAR          = .96004531E-3
MEAN_MOTION_DOT = .35153E-3
MEAN_MOTION_DDOT = 0

CCSDS_OMM_VERS = 2.0
CREATION_DATE  = 
ORIGINATOR     = 

OBJECT_NAME    = SAOCOM 1B
OBJECT_ID      = 2020-059A
CENTER_NAME    = EARTH
REF_FRAME      = TEME
TIME_SYSTEM    = UTC
MEAN_ELEMENT_THEORY = SGP/SGP4

EPOCH          = 2025-12-04T16:03:54.868320
MEAN_MOTION    = 14.82146222
ECCENTRICITY   = .00012689
INCLINATION    = 97.8843
RA_OF_ASC_NODE = 162.3102
ARG_OF_PERICENTER = 87.4856
MEAN_ANOMALY   = 272.6502

EPHEMERIS_TYPE = 0
CLASSIFICATION_TYPE = U
NORAD_CAT_ID   = 46265
ELEMENT_SET_NO = 999
REV_AT_EPOCH   = 28467
BSTAR          = .12626803E-3
MEAN_MOTION_DOT = .953E-5
MEAN_MOTION_DDOT = 0

CCSDS_OMM_VERS = 2.0
CREATION_DATE  = 
ORIGINATOR     = 

OBJECT_NAME    = CSS (TIANHE)
OBJECT_ID      = 2021-035A
CENTER_NAME    = EARTH
REF_FRAME      = TEME
TIME_SYSTEM    = UTC
MEAN_ELEMENT_THEORY = SGP/SGP4

EPOCH          = 2025-12-04T15:25:24.990240
MEAN_MOTION    = 15.58669844
ECCENTRICITY   = .00099747
INCLINATION    = 41.4682
RA_OF_ASC_NODE = 65.8455
ARG_OF_PERICENTER = 328.5002
MEAN_ANOMALY   = 31.5238

EPHEMERIS_TYPE = 0
CLASSIFICATION_TYPE = U
NORAD_CAT_ID   = 48274
ELEMENT_SET_NO = 999
REV_AT_EPOCH   = 26276
BSTAR          = .47697443E-3
MEAN_MOTION_DOT = .37639E-3
MEAN_MOTION_DDOT = 0

CCSDS_OMM_VERS = 2.0
CREATION_DATE  = 
ORIGINATOR     = 

OBJECT_NAME    = COSMOS 2550
OBJECT_ID      = 2021-056A
CENTER_NAME    = EARTH
REF_FRAME      = TEME
TIME_SYSTEM    = UTC
MEAN_ELEMENT_THEORY = SGP/SGP4

EPOCH          = 2025-12-04T13:48:08.784288
MEAN_MOTION    = 15.33831692
ECCENTRICITY   = .0008414
INCLINATION    = 67.1427
RA_OF_ASC_NODE = 328.6296
ARG_OF_PERICENTER = 268.4474
MEAN_ANOMALY   = 91.5716

EPHEMERIS_TYPE = 0
CLASSIFICATION_TYPE = U
NORAD_CAT_ID   = 48865
ELEMENT_SET_NO = 999
REV_AT_EPOCH   = 24887
BSTAR          = .36204E-5
MEAN_MOTION_DOT = -.73E-6
MEAN_MOTION_DDOT = 0

CCSDS_OMM_VERS = 2.0
CREATION_DATE  = 
ORIGINATOR     = 

OBJECT_NAME    = CZ-2C R/B
OBJECT_ID      = 2022-058K
CENTER_NAME    = EARTH
REF_FRAME      = TEME
TIME_SYSTEM    = UTC
MEAN_ELEMENT_THEORY = SGP/SGP4

EPOCH          = 2025-12-04T11:33:02.850336
MEAN_MOTION    = 15.47903453
ECCENTRICITY   = .00463282
INCLINATION    = 50.1911
RA_OF_ASC_NODE = 85.6467
ARG_OF_PERICENTER = 164.3656
MEAN_ANOMALY   = 195.8755

EPHEMERIS_TYPE = 0
CLASSIFICATION_TYPE = U
NORAD_CAT_ID   = 52794
ELEMENT_SET_NO = 999
REV_AT_EPOCH   = 19535
BSTAR          = .95756672E-3
MEAN_MOTION_DOT = .52922E-3
MEAN_MOTION_DDOT = 0

